index,OBJECT_NAME,OBJECT_ID,EPOCH,MEAN_MOTION,ECCENTRICITY,INCLINATION,RA_OF_ASC_NODE,ARG_OF_PERICENTER,MEAN_ANOMALY,EPHEMERIS_TYPE,CLASSIFICATION_TYPE,NORAD_CAT_ID,ELEMENT_SET_NO,REV_AT_EPOCH,BSTAR,MEAN_MOTION_DOT,MEAN_MOTION_DDOT,GROUP,downloaded
110,LEMUR-2-MIRIWARI,2022-002BY,2022-05-12T10:15:21.655872,15.13407175,0.0008749,97.4898,200.0608,187.3017,172.8088,0,U,51054,999,1796,0.00033498,5.922e-05,0.0,spire,2022-05-13 13:10:40.270361
111,LEMUR-2-DJIRANG,2022-002CC,2022-05-12T15:02:07.862496,15.13414742,0.0008572,97.4881,200.2245,184.3028,175.8131,0,U,51058,999,1799,0.00030638,5.411e-05,0.0,spire,2022-05-13 13:10:40.270361
112,LEMUR-2-KRYWE,2022-003G,2022-05-12T15:37:34.153536,15.29468868,0.0004828,44.9887,264.6656,326.9898,33.0684,0,U,51100,999,1812,0.0015034,0.00043747,0.0,spire,2022-05-13 13:10:40.270361
0,OPS 6582 (TRANSIT 5B-5),1964-083D,2022-05-12T15:47:52.086336,13.5677734,0.0039991,90.0284,195.3333,336.3941,144.0496,0,U,965,999,84066,4.9229e-05,4.4e-07,0.0,satnogs,2022-05-13 13:10:41.661533
1,OSCAR 7 (AO-7),1974-089B,2022-05-12T20:10:18.259104,12.53654752,0.0012594,101.9027,112.6009,109.3113,6.0993,0,U,7530,999,17300,6.2043e-05,-3.6e-07,0.0,satnogs,2022-05-13 13:10:41.661533
2,UOSAT 2 (UO-11),1984-021B,2022-05-12T23:26:01.623552,14.8360792,0.0010039,97.6164,122.0322,80.4129,279.8219,0,U,14781,999,5578,0.00010039,7.78e-06,0.0,satnogs,2022-05-13 13:10:41.661533
3,NOAA 9,1984-123A,2022-05-12T17:22:41.443392,14.1619295,0.001377,99.043,104.553,266.8459,266.8538,0,U,15427,999,93155,6.196e-05,7.7e-07,0.0,satnogs,2022-05-13 13:10:41.661533
4,LUSAT (LO-19),1990-005G,2022-05-12T20:11:53.907360,14.33051895,0.0010596,98.7912,97.1648,274.2461,85.7512,0,U,20442,999,68800,5.6235e-05,1.08e-06,0.0,satnogs,2022-05-13 13:10:41.661533
5,ITAMSAT (IO-26),1993-061D,2022-05-12T20:47:10.145760,14.30510056,0.000977,98.8843,163.0274,137.3092,222.885,0,U,22826,999,49332,5.2876e-05,9.2e-07,0.0,satnogs,2022-05-13 13:10:41.661533
6,RADIO ROSTO (RS-15),1994-085A,2022-05-12T22:06:03.007296,11.2757165,0.0167597,64.8122,203.0828,278.6145,79.5822,0,U,23439,999,12748,0.00015882,-3.7e-07,0.0,satnogs,2022-05-13 13:10:41.661533
7,JAS-2 (FO-29),1996-046B,2022-05-13T02:07:46.258176,13.53114627,0.0350559,98.5194,161.6338,15.2495,345.8896,0,U,24278,999,27107,5.6008e-06,-3e-07,0.0,satnogs,2022-05-13 13:10:41.661533
8,NOAA 15,1998-030A,2022-05-13T03:06:39.548160,14.2612193,0.0011135,98.647,163.122,46.0609,314.1488,0,U,25338,999,24823,9.794e-05,1.91e-06,0.0,satnogs,2022-05-13 13:10:41.661533
9,TECHSAT 1B (GO-32),1998-043D,2022-05-12T14:06:21.091104,14.23749888,0.0001114,98.8152,82.9663,156.2147,203.9083,0,U,25397,999,23832,3.662e-05,3.9e-07,0.0,satnogs,2022-05-13 13:10:41.661533
10,ISS (ZARYA),1998-067A,2022-05-12T13:01:01.771968,15.50041161,0.0006817,51.6432,153.1122,89.6534,11.1576,0,U,25544,999,33965,0.00013605,7.33e-05,0.0,satnogs,2022-05-13 13:10:41.661533
11,ORSTED,1999-008B,2022-05-13T04:29:59.955072,14.48452695,0.0136714,96.465,6.3462,294.2419,64.4546,0,U,25635,999,22544,8.0412e-05,3.05e-06,0.0,satnogs,2022-05-13 13:10:41.661533
12,PHASE 3D (AO-40),2000-072B,2022-05-11T22:49:56.973504,1.25588619,0.7989915,7.1055,277.6058,4.6823,359.4059,0,U,26609,999,9869,0.0,-7.5e-07,0.0,satnogs,2022-05-13 13:10:41.661533
13,PCSAT (NO-44),2001-043C,2022-05-13T05:15:26.920512,14.3069422,0.0007972,67.0493,149.3432,268.4979,91.5209,0,U,26931,999,7652,6.6308e-05,9.1e-07,0.0,satnogs,2022-05-13 13:10:41.661533
14,SAUDISAT 1C (SO-50),2002-058C,2022-05-12T11:34:00.637248,14.76072427,0.0076376,64.5561,51.9745,301.5144,57.8512,0,U,27607,999,4306,0.00011825,7.09e-06,0.0,satnogs,2022-05-13 13:10:41.661533
15,CUTE-1 (CO-55),2003-031E,2022-05-12T13:15:31.406112,14.22431971,0.0009385,98.6795,140.7801,199.1574,160.9252,0,U,27844,999,97876,0.00012748,2.4e-06,0.0,satnogs,2022-05-13 13:10:41.661533
16,CUBESAT XI-IV (CO-57),2003-031J,2022-05-12T20:32:46.733280,14.21991725,0.0009038,98.6843,141.606,213.1512,146.91,0,U,27848,999,97862,0.00010965,1.99e-06,0.0,satnogs,2022-05-13 13:10:41.661533
17,MOZHAYETS 4 (RS-22),2003-042A,2022-05-13T03:25:35.220864,14.67299097,0.0011884,98.1855,273.8834,323.6385,36.4007,0,U,27939,999,99586,0.00012434,6.52e-06,0.0,satnogs,2022-05-13 13:10:41.661533
18,INMARSAT 4-F1,2005-009A,2022-05-12T14:25:39.495648,1.00270981,0.0003246,3.5878,34.6828,21.0135,174.5634,0,U,28628,999,6266,0.0,-2.51e-06,0.0,satnogs,2022-05-13 13:10:41.661533
19,NOAA 18,2005-018A,2022-05-13T03:33:38.109600,14.12726305,0.0015274,98.9502,203.61,73.5688,286.7161,0,U,28654,999,87508,9.7472e-05,1.36e-06,0.0,satnogs,2022-05-13 13:10:41.661533
20,CUBESAT XI-V,2005-043F,2022-05-12T07:15:50.821056,14.642666,0.0015424,98.101,264.2508,253.4958,106.4551,0,U,28895,999,88212,0.00016485,8.22e-06,0.0,satnogs,2022-05-13 13:10:41.661533
21,METOP-A,2006-044A,2022-05-12T21:57:35.231904,14.67119615,0.0199464,98.4535,176.389,119.3122,52.3676,0,U,29499,999,80546,0.00019326,1.401e-05,0.0,satnogs,2022-05-13 13:10:41.661533
22,CARTOSAT-2 (IRS-P7),2007-001B,2022-05-13T04:51:03.325248,15.27746501,0.0155901,97.8633,236.6721,180.5828,179.5254,0,U,29710,999,83085,0.00061676,0.0002402,0.0,satnogs,2022-05-13 13:10:41.661533
23,FALCONSAT-3,2007-006E,2022-05-12T16:38:41.405856,15.50778912,0.0001714,35.4306,134.1203,210.3606,149.7026,0,U,30776,999,84402,0.00057551,0.00034273,0.0,satnogs,2022-05-13 13:10:41.661533
