OPS 6582 (TRANSIT 5B-5)
1 00965U 64083D   22132.65824174  .00000044  00000-0  49229-4 0  9996
2 00965  90.0284 195.3333 0039991 336.3941 144.0496 13.56777340840667
OSCAR 7
1 07530U 74089B   22132.84048911 -.00000036  00000-0  62043-4 0  9997
2 07530 101.9027 112.6009 0012594 109.3113   6.0993 12.53654752173003
OSCAR 11 (UoSAT 2)
1 14781U 84021B   22132.97640768  .00000778  00000-0  10039-3 0  9991
2 14781  97.6164 122.0322 0010039  80.4129 279.8219 14.83607920 55788
NOAA 9
1 15427U 84123A   22132.72409078  .00000077  00000-0  61960-4 0  9994
2 15427  99.0430 104.5530 0013770 266.8459 266.8538 14.16192950931551
OSCAR 19 (LUSAT)
1 20442U 90005G   22132.84159615  .00000108  00000-0  56235-4 0  9999
2 20442  98.7912  97.1648 0010596 274.2461  85.7512 14.33051895688001
ITAMSAT
1 22826U 93061D   22132.86608965  .00000092  00000-0  52876-4 0  9990
2 22826  98.8843 163.0274 0009770 137.3092 222.8850 14.30510056493326
RADIO ROSTO
1 23439U 94085A   22132.92086814 -.00000037  00000-0  15882-3 0  9993
2 23439  64.8122 203.0828 0167597 278.6145  79.5822 11.27571650127487
JAS 2
1 24278U 96046B   22133.08872984 -.00000030  00000-0  56008-5 0  9993
2 24278  98.5194 161.6338 0350559  15.2495 345.8896 13.53114627271075
NOAA 15
1 25338U 98030A   22133.12962440  .00000191  00000-0  97940-4 0  9994
2 25338  98.6470 163.1220 0011135  46.0609 314.1488 14.26121930248235
TECHSAT 1B
1 25397U 98043D   22132.58774411  .00000039  00000-0  36620-4 0  9990
2 25397  98.8152  82.9663 0001114 156.2147 203.9083 14.23749888238325
ISS (ZARYA)
1 25544U 98067A   22132.54238162  .00007330  00000-0  13605-3 0  9992
2 25544  51.6432 153.1122 0006817  89.6534  11.1576 15.50041161339656
ORSTED
1 25635U 99008B   22133.18749948  .00000305  00000-0  80412-4 0  9995
2 25635  96.4650   6.3462 0136714 294.2419  64.4546 14.48452695225441
AMSAT OSCAR 40
1 26609U 00072B   22131.95135386 -.00000075  00000-0  00000-0 0  9994
2 26609   7.1055 277.6058 7989915   4.6823 359.4059  1.25588619 98691
PCSAT
1 26931U 01043C   22133.21906158  .00000091  00000-0  66308-4 0  9999
2 26931  67.0493 149.3432 0007972 268.4979  91.5209 14.30694220 76525
SAUDISAT 1C
1 27607U 02058C   22132.48195182  .00000709  00000-0  11825-3 0  9991
2 27607  64.5561  51.9745 0076376 301.5144  57.8512 14.76072427 43060
CUTE-1
1 27844U 03031E   22132.55244683  .00000240  00000-0  12748-3 0  9990
2 27844  98.6795 140.7801 0009385 199.1574 160.9252 14.22431971978769
CUBESAT XI 4
1 27848U 03031J   22132.85609645  .00000199  00000-0  10965-3 0  9992
2 27848  98.6843 141.6060 0009038 213.1512 146.9100 14.21991725978626
MOZHAYETS 4
1 27939U 03042A   22133.14276876  .00000652  00000-0  12434-3 0  9991
2 27939  98.1855 273.8834 0011884 323.6385  36.4007 14.67299097995866
INMARSAT 4-F1
1 28628U 05009A   22132.60115157 -.00000251  00000-0  00000-0 0  9995
2 28628   3.5878  34.6828 0003246  21.0135 174.5634  1.00270981 62665
NOAA 18
1 28654U 05018A   22133.14835775  .00000136  00000-0  97472-4 0  9993
2 28654  98.9502 203.6100 0015274  73.5688 286.7161 14.12726305875088
CUBESAT XI 5
1 28895U 05043F   22132.30267154  .00000822  00000-0  16485-3 0  9991
2 28895  98.1010 264.2508 0015424 253.4958 106.4551 14.64266600882120
METOP-A
1 29499U 06044A   22132.91499111  .00001401  00000-0  19326-3 0  9992
2 29499  98.4535 176.3890 0199464 119.3122  52.3676 14.67119615805468
CARTOSAT 2AT
1 29710U 07001B   22133.20212182  .00024020  00000-0  61676-3 0  9993
2 29710  97.8633 236.6721 0155901 180.5828 179.5254 15.27746501830852
FALCONSAT 3
1 30776U 07006E   22132.69353479  .00034273  00000-0  57551-3 0  9997
2 30776  35.4306 134.1203 0001714 210.3606 149.7026 15.50778912844023
LEMUR 2 MIRIWARI
1 51054U 22002BY  22132.42733398  .00005922  00000-0  33498-3 0  9998
2 51054  97.4898 200.0608 0008749 187.3017 172.8088 15.13407175 17964
LEMUR 2 DJIRANG
1 51058U 22002CC  22132.62647989  .00005411  00000-0  30638-3 0  9990
2 51058  97.4881 200.2245 0008572 184.3028 175.8131 15.13414742 17995
LEMUR 2 KRYWE
1 51100U 22003G   22132.65108974  .00043747  00000-0  15034-2 0  9994
2 51100  44.9887 264.6656 0004828 326.9898  33.0684 15.29468868 18124
